GLOBALSTAR M001         
1 25162U 98008A   25255.53111810 -.00000086  00000+0  79442-4 0  9994
2 25162  52.0026  78.9998 0002331  80.5871 314.0525 12.38217268254530
GLOBALSTAR M004         
1 25163U 98008B   25255.43917534 -.00000039  00000+0  35574-3 0  9996
2 25163  51.9998 147.9667 0003519 114.2919  57.0574 12.63402729272718
GLOBALSTAR M002         
1 25164U 98008C   25255.59949708 -.00000086  00000+0 -18159-3 0  9995
2 25164  52.0047  21.0309 0000786 324.4824  35.5943 11.61511846194222
GLOBALSTAR M003         
1 25165U 98008D   25255.55720244 -.00000188  00000+0 -10459-2 0  9991
2 25165  51.9955 286.5457 0008394 107.5353  59.0992 12.12061480243817
GLOBALSTAR M014         
1 25306U 98023A   25255.62909355 -.00000067  00000+0  19341-3 0  9990
2 25306  51.9848 302.3471 0001177 151.4837  19.8345 11.65481769201368
GLOBALSTAR M006         
1 25307U 98023B   25255.54470071 -.00000059  00000+0  34000-3 0  9990
2 25307  51.9980 358.2949 0002553 257.0882 115.9926 11.58175583226959
GLOBALSTAR M015         
1 25308U 98023C   25255.56551491 -.00000102  00000+0 -65586-3 0  9992
2 25308  51.9809 100.7177 0011761 229.8796 143.2669 11.48859110204122
GLOBALSTAR M008         
1 25309U 98023D   25255.57892025 -.00000076  00000+0  16050-3 0  9996
2 25309  51.9977 304.6860 0002503   7.2310 110.5096 12.36071924248651
